[{"OBJECT_NAME":"TRANSPORTER-10 OBJECT AW","OBJECT_ID":"2024-043AW","EPOCH":"2026-03-09T22:04:49.515456","MEAN_MOTION":15.70494371,"ECCENTRICITY":0.00039773,"INCLINATION":97.534,"RA_OF_ASC_NODE":220.1774,"ARG_OF_PERICENTER":196.6835,"MEAN_ANOMALY":163.4297,"EPHEMERIS_TYPE":0,"CLASSIFICATION_TYPE":"U","NORAD_CAT_ID":59142,"ELEMENT_SET_NO":999,"REV_AT_EPOCH":11287,"BSTAR":0.00092189633,"MEAN_MOTION_DOT":0.00114165,"MEAN_MOTION_DDOT":0},{"OBJECT_NAME":"STARLINK-11318 [DTC]","OBJECT_ID":"2024-175K","EPOCH":"2026-03-09T22:45:09.655488","MEAN_MOTION":15.69702462,"ECCENTRICITY":0.00012456,"INCLINATION":53.1586,"RA_OF_ASC_NODE":55.2418,"ARG_OF_PERICENTER":67.6256,"MEAN_ANOMALY":292.4893,"EPHEMERIS_TYPE":0,"CLASSIFICATION_TYPE":"U","NORAD_CAT_ID":61252,"ELEMENT_SET_NO":999,"REV_AT_EPOCH":8457,"BSTAR":-1.5766358e-5,"MEAN_MOTION_DOT":-2.498e-5,"MEAN_MOTION_DDOT":0}]
